[{"OBJECT_NAME":"FLOCK 4Q-11","OBJECT_ID":"2023-174T","EPOCH":"2026-03-04T04:37:38.699328","MEAN_MOTION":15.44806147,"ECCENTRICITY":0.00075739,"INCLINATION":97.3913,"RA_OF_ASC_NODE":149.7054,"ARG_OF_PERICENTER":173.3114,"MEAN_ANOMALY":186.8237,"EPHEMERIS_TYPE":0,"CLASSIFICATION_TYPE":"U","NORAD_CAT_ID":58273,"ELEMENT_SET_NO":999,"REV_AT_EPOCH":12935,"BSTAR":0.00080166353,"MEAN_MOTION_DOT":0.00037625,"MEAN_MOTION_DDOT":0},{"OBJECT_NAME":"FLOCK 4Q-36","OBJECT_ID":"2023-174U","EPOCH":"2026-03-04T04:33:54.766944","MEAN_MOTION":15.50801762,"ECCENTRICITY":0.00076764,"INCLINATION":97.39,"RA_OF_ASC_NODE":152.3134,"ARG_OF_PERICENTER":163.6157,"MEAN_ANOMALY":196.5345,"EPHEMERIS_TYPE":0,"CLASSIFICATION_TYPE":"U","NORAD_CAT_ID":58274,"ELEMENT_SET_NO":999,"REV_AT_EPOCH":12952,"BSTAR":0.00080698559,"MEAN_MOTION_DOT":0.00046684,"MEAN_MOTION_DDOT":0},{"OBJECT_NAME":"FLOCK 4Q-12","OBJECT_ID":"2023-174V","EPOCH":"2026-03-04T04:48:36.567072","MEAN_MOTION":15.51002402,"ECCENTRICITY":0.00060264,"INCLINATION":97.3892,"RA_OF_ASC_NODE":152.2065,"ARG_OF_PERICENTER":170.995,"MEAN_ANOMALY":189.1411,"EPHEMERIS_TYPE":0,"CLASSIFICATION_TYPE":"U","NORAD_CAT_ID":58275,"ELEMENT_SET_NO":999,"REV_AT_EPOCH":12954,"BSTAR":0.001865605,"MEAN_MOTION_DOT":0.00109634,"MEAN_MOTION_DDOT":0},{"OBJECT_NAME":"FLOCK 4Q-28","OBJECT_ID":"2023-174AA","EPOCH":"2026-03-04T11:06:12.785472","MEAN_MOTION":15.48655603,"ECCENTRICITY":0.00072347,"INCLINATION":97.392,"RA_OF_ASC_NODE":151.72,"ARG_OF_PERICENTER":169.2466,"MEAN_ANOMALY":190.894,"EPHEMERIS_TYPE":0,"CLASSIFICATION_TYPE":"U","NORAD_CAT_ID":58280,"ELEMENT_SET_NO":999,"REV_AT_EPOCH":12950,"BSTAR":0.00089444539,"MEAN_MOTION_DOT":0.00047995,"MEAN_MOTION_DDOT":0},{"OBJECT_NAME":"FLOCK 4Q-27","OBJECT_ID":"2023-174AC","EPOCH":"2026-03-04T04:47:58.145856","MEAN_MOTION":15.48610638,"ECCENTRICITY":0.00067276,"INCLINATION":97.3862,"RA_OF_ASC_NODE":150.9953,"ARG_OF_PERICENTER":165.2224,"MEAN_ANOMALY":194.9224,"EPHEMERIS_TYPE":0,"CLASSIFICATION_TYPE":"U","NORAD_CAT_ID":58282,"ELEMENT_SET_NO":999,"REV_AT_EPOCH":12947,"BSTAR":0.00088699163,"MEAN_MOTION_DOT":0.0004751,"MEAN_MOTION_DDOT":0},{"OBJECT_NAME":"FLOCK 4Q-26","OBJECT_ID":"2023-174AE","EPOCH":"2026-03-04T04:20:17.679552","MEAN_MOTION":15.5041521,"ECCENTRICITY":0.0007224,"INCLINATION":97.3914,"RA_OF_ASC_NODE":152.3907,"ARG_OF_PERICENTER":167.6485,"MEAN_ANOMALY":192.4945,"EPHEMERIS_TYPE":0,"CLASSIFICATION_TYPE":"U","NORAD_CAT_ID":58284,"ELEMENT_SET_NO":999,"REV_AT_EPOCH":12952,"BSTAR":0.0008640022,"MEAN_MOTION_DOT":0.0004932,"MEAN_MOTION_DDOT":0},{"OBJECT_NAME":"FLOCK 4Q-31","OBJECT_ID":"2023-174AF","EPOCH":"2026-03-04T05:02:47.773824","MEAN_MOTION":15.49919177,"ECCENTRICITY":0.00078527,"INCLINATION":97.3956,"RA_OF_ASC_NODE":152.0637,"ARG_OF_PERICENTER":169.4529,"MEAN_ANOMALY":190.6889,"EPHEMERIS_TYPE":0,"CLASSIFICATION_TYPE":"U","NORAD_CAT_ID":58285,"ELEMENT_SET_NO":999,"REV_AT_EPOCH":12948,"BSTAR":0.0010122937,"MEAN_MOTION_DOT":0.00056863,"MEAN_MOTION_DDOT":0},{"OBJECT_NAME":"FLOCK 4Q-30","OBJECT_ID":"2023-174AG","EPOCH":"2026-03-04T04:46:35.686560","MEAN_MOTION":15.5014725,"ECCENTRICITY":0.00075747,"INCLINATION":97.3957,"RA_OF_ASC_NODE":152.2318,"ARG_OF_PERICENTER":165.744,"MEAN_ANOMALY":194.4027,"EPHEMERIS_TYPE":0,"CLASSIFICATION_TYPE":"U","NORAD_CAT_ID":58286,"ELEMENT_SET_NO":999,"REV_AT_EPOCH":12949,"BSTAR":0.00096407811,"MEAN_MOTION_DOT":0.00054567,"MEAN_MOTION_DDOT":0},{"OBJECT_NAME":"PELICAN-1","OBJECT_ID":"2023-174AS","EPOCH":"2026-03-04T06:14:42.909504","MEAN_MOTION":15.63414333,"ECCENTRICITY":0.00089122,"INCLINATION":97.3964,"RA_OF_ASC_NODE":157.77,"ARG_OF_PERICENTER":253.485,"MEAN_ANOMALY":106.543,"EPHEMERIS_TYPE":0,"CLASSIFICATION_TYPE":"U","NORAD_CAT_ID":58296,"ELEMENT_SET_NO":999,"REV_AT_EPOCH":12971,"BSTAR":0.0011452638,"MEAN_MOTION_DOT":0.00106769,"MEAN_MOTION_DDOT":0},{"OBJECT_NAME":"FLOCK 4Q-25","OBJECT_ID":"2023-174AZ","EPOCH":"2026-03-04T04:38:53.998656","MEAN_MOTION":15.55935413,"ECCENTRICITY":0.00052827,"INCLINATION":97.3875,"RA_OF_ASC_NODE":153.0681,"ARG_OF_PERICENTER":152.2523,"MEAN_ANOMALY":207.9014,"EPHEMERIS_TYPE":0,"CLASSIFICATION_TYPE":"U","NORAD_CAT_ID":58303,"ELEMENT_SET_NO":999,"REV_AT_EPOCH":12961,"BSTAR":0.0010125137,"MEAN_MOTION_DOT":0.00070694,"MEAN_MOTION_DDOT":0},{"OBJECT_NAME":"FLOCK 4Q-29","OBJECT_ID":"2023-174BA","EPOCH":"2026-03-04T14:41:14.964000","MEAN_MOTION":15.4913556,"ECCENTRICITY":0.00079177,"INCLINATION":97.3945,"RA_OF_ASC_NODE":152.2585,"ARG_OF_PERICENTER":156.7291,"MEAN_ANOMALY":203.432,"EPHEMERIS_TYPE":0,"CLASSIFICATION_TYPE":"U","NORAD_CAT_ID":58304,"ELEMENT_SET_NO":999,"REV_AT_EPOCH":12953,"BSTAR":0.00076251283,"MEAN_MOTION_DOT":0.00041568,"MEAN_MOTION_DDOT":0},{"OBJECT_NAME":"FLOCK 4Q-22","OBJECT_ID":"2023-174BC","EPOCH":"2026-03-04T04:39:10.251360","MEAN_MOTION":15.51662649,"ECCENTRICITY":0.00066597,"INCLINATION":97.386,"RA_OF_ASC_NODE":151.9971,"ARG_OF_PERICENTER":161.2229,"MEAN_ANOMALY":198.927,"EPHEMERIS_TYPE":0,"CLASSIFICATION_TYPE":"U","NORAD_CAT_ID":58306,"ELEMENT_SET_NO":999,"REV_AT_EPOCH":12954,"BSTAR":0.00096521039,"MEAN_MOTION_DOT":0.00057653,"MEAN_MOTION_DDOT":0},{"OBJECT_NAME":"FLOCK 4Q-23","OBJECT_ID":"2023-174BD","EPOCH":"2026-03-04T05:25:44.772096","MEAN_MOTION":15.54753621,"ECCENTRICITY":0.00070089,"INCLINATION":97.3969,"RA_OF_ASC_NODE":153.5586,"ARG_OF_PERICENTER":157.9548,"MEAN_ANOMALY":202.2008,"EPHEMERIS_TYPE":0,"CLASSIFICATION_TYPE":"U","NORAD_CAT_ID":58307,"ELEMENT_SET_NO":999,"REV_AT_EPOCH":12958,"BSTAR":0.0010617959,"MEAN_MOTION_DOT":0.00071033,"MEAN_MOTION_DDOT":0},{"OBJECT_NAME":"FLOCK 4Q-33","OBJECT_ID":"2023-174BE","EPOCH":"2026-03-04T05:47:44.583936","MEAN_MOTION":15.50766394,"ECCENTRICITY":0.00074787,"INCLINATION":97.3888,"RA_OF_ASC_NODE":151.987,"ARG_OF_PERICENTER":151.4077,"MEAN_ANOMALY":208.7586,"EPHEMERIS_TYPE":0,"CLASSIFICATION_TYPE":"U","NORAD_CAT_ID":58308,"ELEMENT_SET_NO":999,"REV_AT_EPOCH":12953,"BSTAR":0.00085235013,"MEAN_MOTION_DOT":0.00049265,"MEAN_MOTION_DDOT":0},{"OBJECT_NAME":"FLOCK 4Q-35","OBJECT_ID":"2023-174BF","EPOCH":"2026-03-04T11:35:33.064512","MEAN_MOTION":15.49773673,"ECCENTRICITY":0.00082953,"INCLINATION":97.3909,"RA_OF_ASC_NODE":152.4071,"ARG_OF_PERICENTER":163.702,"MEAN_ANOMALY":196.45,"EPHEMERIS_TYPE":0,"CLASSIFICATION_TYPE":"U","NORAD_CAT_ID":58309,"ELEMENT_SET_NO":999,"REV_AT_EPOCH":12955,"BSTAR":0.00085586534,"MEAN_MOTION_DOT":0.00047768,"MEAN_MOTION_DDOT":0},{"OBJECT_NAME":"FLOCK 4Q-34","OBJECT_ID":"2023-174BN","EPOCH":"2026-03-04T05:42:43.401312","MEAN_MOTION":15.54943889,"ECCENTRICITY":0.00068437,"INCLINATION":97.3871,"RA_OF_ASC_NODE":152.9757,"ARG_OF_PERICENTER":159.5044,"MEAN_ANOMALY":200.6486,"EPHEMERIS_TYPE":0,"CLASSIFICATION_TYPE":"U","NORAD_CAT_ID":58316,"ELEMENT_SET_NO":999,"REV_AT_EPOCH":12959,"BSTAR":0.0010554799,"MEAN_MOTION_DOT":0.00071099,"MEAN_MOTION_DDOT":0}]
